SPACEMOBILE-003         
1 61045U 24163A   26197.33061939  .00001005  00000+0  59791-4 0  9991
2 61045  52.9669 175.4223 0004666 197.1452 162.9385 15.20707825102206
SPACEMOBILE-005         
1 61046U 24163B   26197.77410363  .00002313  00000+0  11848-3 0  9992
2 61046  52.9761 173.3331 0008608 200.3156 159.7497 15.20721879102264
SPACEMOBILE-001         
1 61047U 24163C   26197.37810403  .00000103  00000+0  19358-4 0  9998
2 61047  52.9728 174.8637 0007107 197.0870 162.9886 15.20742349102208
SPACEMOBILE-002         
1 61048U 24163D   26197.29622620 -.00001100  00000+0 -34612-4 0  9992
2 61048  52.9781 175.2802 0005866 196.1533 163.9275 15.20776804102197
SPACEMOBILE-004         
1 61049U 24163E   26196.62160951  .00012160  00000+0  55841-3 0  9995
2 61049  52.9675 178.1586 0006579 225.4338 134.6120 15.20780797102091
SPACEMOBILE-006         
1 67232U 25309A   26197.39546060  .00000913  00000+0  58828-4 0  9994
2 67232  52.9935 197.8358 0009991 219.1469 140.8802 15.18656625 31031
SPACEMOBILE-008         
1 69589U 26139A   26197.20988308  .00000129  00000+0  24228-4 0  9994
2 69589  52.9949 130.8006 0005109  58.8976 301.2516 15.12802700  4371
SPACEMOBILE-009         
1 69590U 26139B   26197.80654851  .00000255  00000+0  31410-4 0  9996
2 69590  52.9940 128.1083 0005360  56.2913 303.8588 15.12696684  4460
SPACEMOBILE-010         
1 69591U 26139C   26197.54552912  .00000432  00000+0  41587-4 0  9996
2 69591  52.9947 129.3312 0005295  47.6592 312.4847 15.12529797  4431
